TOMORROW-S2             
1 60485U 24149T   26189.77383058  .00005511  00000+0  17493-3 0  9998
2 60485  97.3813 270.6915 0003294 165.0151 195.1189 15.33077157105394
FLOCK 4BE-36            
1 60486U 24149U   26189.77694602  .00012409  00000+0  27967-3 0  9990
2 60486  97.3738 274.4730 0004291 170.3083 189.8249 15.43394438105683
FLOCK 4BE-25            
1 60487U 24149V   26190.19274936  .00010797  00000+0  27774-3 0  9997
2 60487  97.3792 273.5000 0003294 156.2094 203.9304 15.39431125105625
FLOCK 4BE-31            
1 60488U 24149W   26190.04645690  .00015235  00000+0  32503-3 0  9999
2 60488  97.3793 275.6689 0003379 166.3128 193.8213 15.44977948105751
FLOCK 4BE-20            
1 60489U 24149X   26191.53268010  .00009644  00000+0  25405-3 0  9992
2 60489  97.3694 273.6700 0004628 165.1738 194.9644 15.38726180105805
FLOCK 4BE-23            
1 60490U 24149Y   26190.03305605  .00010461  00000+0  27962-3 0  9999
2 60490  97.3776 272.5504 0004084 173.1683 186.9618 15.38255639105552
FLOCK 4BE-17            
1 60492U 24149AA  26189.72695059  .00011296  00000+0  28107-3 0  9999
2 60492  97.3765 273.2745 0003931 162.8357 197.3023 15.40434288105570
NUSAT-50 (NANCY ROMAN)  
1 60493U 24149AB  26192.16984925  .00005831  00000+0  20166-3 0  9990
2 60493  97.3787 273.2637 0004805 111.3057 248.8697 15.30273983105797
FLOCK 4BE-22            
1 60494U 24149AC  26192.22007046  .00010279  00000+0  24386-3 0  9998
2 60494  97.3734 276.0197 0004439 165.7218 194.4155 15.41902678106009
FLOCK 4BE-34            
1 60495U 24149AD  26192.17264687  .00010036  00000+0  23843-3 0  9997
2 60495  97.3781 276.8086 0004428 172.5030 187.6284 15.41867140106026
TYCHE                   
1 60496U 24149AE  26191.93995779  .00002665  00000+0  10710-3 0  9992
2 60496  97.3751 269.4371 0002679 177.6377 182.4874 15.25808164105520
FLOCK 4BE-32            
1 60497U 24149AF  26189.79009742  .00013635  00000+0  31189-3 0  9992
2 60497  97.3712 273.9609 0004383 177.0530 183.0744 15.42925610105664
NUSAT-48 (HENRIETTA LE*)
1 60498U 24149AG  26191.17786951  .00006755  00000+0  23361-3 0  9990
2 60498  97.3914 272.5613 0004333 173.6918 186.4378 15.30220707105657
NUSAT-49 (KLARA DAN VO*)
1 60500U 24149AJ  26192.20071671  .00005077  00000+0  17563-3 0  9998
2 60500  97.3780 273.3266 0002083 174.2786 185.8478 15.30340024105801
FLOCK 4BE-11            
1 60501U 24149AK  26191.19944043  .00014279  00000+0  31750-3 0  9996
2 60501  97.3696 275.6385 0004566 172.5870 187.5446 15.43759592105901
YAM-7                   
1 60504U 24149AN  26192.15934691  .00004486  00000+0  14707-3 0  9996
2 60504  97.3781 272.3150 0003269 180.7002 179.4236 15.32145974105728
FLOCK 4BE-24            
1 60505U 24149AP  26190.53571544  .00015684  00000+0  34635-3 0  9995
2 60505  97.3710 275.2320 0004496 186.8328 173.2860 15.43944372105819
LUR-1                   
1 60506U 24149AQ  26192.17662439  .00003960  00000+0  13724-3 0  9992
2 60506  97.3737 270.8344 0003570 196.3479 163.7647 15.30413362105645
TANAGER-1               
1 60507U 24149AR  26190.70477620  .00000245  00000+0  72329-5 0  9997
2 60507  97.2281 284.8679 0002763 147.2432 212.8988 15.43935842106519
EAGLEEYE                
1 60508U 24149AS  26189.79876300  .00102225  00000+0  66756-3 0  9999
2 60508  97.3703 284.3989 0004993 195.9799 164.1310 15.75536199106337
FLOCK 4BE-29            
1 60509U 24149AT  26191.89132712  .00028735  00000+0  60528-3 0  9990
2 60509  97.3806 278.1349 0002957 185.1010 175.0209 15.45223368106075
TRANSPORTER-11 OBJECT AU
1 60510U 24149AU  26192.02599866  .00009571  00000+0  23494-3 0  9993
2 60510  97.3730 275.9465 0003856 181.4585 178.6651 15.40895030105987
FLOCK 4BE-2             
1 60511U 24149AV  26190.66126500  .00051489  00000+0  75479-3 0  9998
2 60511  97.3824 278.6387 0005091 188.0676 172.0497 15.55382059105997
FLOCK 4BE-13            
1 60512U 24149AW  26192.03340690  .00009714  00000+0  22577-3 0  9995
2 60512  97.3719 276.7020 0004773 167.9501 192.1861 15.42538524106044
FLOCK 4BE-27            
1 60513U 24149AX  26191.21140313  .00006801  00000+0  20358-3 0  9994
2 60513  97.3822 273.0785 0003465 199.1987 160.9127 15.34858715105674
FLOCK 4BE-9             
1 60514U 24149AY  26190.03653995  .00011231  00000+0  27016-3 0  9990
2 60514  97.3785 274.5287 0003091 188.6470 171.4725 15.41465848105682
FLOCK 4BE-6             
1 60516U 24149BA  26190.53772123  .00010716  00000+0  26876-3 0  9992
2 60516  97.3785 274.3506 0003749 190.1584 169.9587 15.40208441105715
FLOCK 4BE-14            
1 60517U 24149BB  26191.53871008  .00012078  00000+0  28755-3 0  9997
2 60517  97.3694 275.5187 0004831 192.1520 167.9611 15.41751243105921
